[
    {
        "CCSDS_OMM_VERS": "3.0",
        "COMMENT": "GENERATED VIA SPACE-TRACK.ORG API",
        "CREATION_DATE": "2025-05-04T06:56:20",
        "ORIGINATOR": "18 SPCS",
        "OBJECT_NAME": "BEIDOU 3M16",
        "OBJECT_ID": "2018-078B",
        "CENTER_NAME": "EARTH",
        "REF_FRAME": "TEME",
        "TIME_SYSTEM": "UTC",
        "MEAN_ELEMENT_THEORY": "SGP4",
        "EPOCH": "2025-05-03T23:51:53.790912",
        "MEAN_MOTION": "1.86232301",
        "ECCENTRICITY": "0.00049140",
        "INCLINATION": "54.4528",
        "RA_OF_ASC_NODE": "314.2940",
        "ARG_OF_PERICENTER": "42.5859",
        "MEAN_ANOMALY": "317.4540",
        "EPHEMERIS_TYPE": "0",
        "CLASSIFICATION_TYPE": "U",
        "NORAD_CAT_ID": "43648",
        "ELEMENT_SET_NO": "999",
        "REV_AT_EPOCH": "4456",
        "BSTAR": "0.00000000000000",
        "MEAN_MOTION_DOT": "-0.00000067",
        "MEAN_MOTION_DDOT": "0.0000000000000",
        "SEMIMAJOR_AXIS": "27906.059",
        "PERIOD": "773.228",
        "APOAPSIS": "21541.637",
        "PERIAPSIS": "21514.211",
        "OBJECT_TYPE": "PAYLOAD",
        "RCS_SIZE": "LARGE",
        "COUNTRY_CODE": "PRC",
        "LAUNCH_DATE": "2018-10-15",
        "SITE": "XSC",
        "DECAY_DATE": null,
        "FILE": "4718556",
        "GP_ID": "286818866",
        "TLE_LINE0": "0 BEIDOU 3M16",
        "TLE_LINE1": "1 43648U 18078B   25123.99437258 -.00000067  00000-0  00000+0 0  9992",
        "TLE_LINE2": "2 43648  54.4528 314.2940 0004914  42.5859 317.4540  1.86232301 44568"
    }
]